{
  "type": "FeatureCollection",
  "features": [
    {
      "type": "Feature",
      "properties": {
        "norad_id": 39773,
        "name": "EUTELSAT 3B",
        "group": "eutelsat",
        "lat": -0.07691454021490302,
        "lon": -117.07572033756145,
        "alt_km": 35767.9234087538,
        "timestamp": "2025-12-24T09:46:30.666943+00:00",
        "meta_object_name": "EUTELSAT 3B",
        "meta_object_id": "2014-030A",
        "meta_epoch": "2025-12-24T00:36:38.599200",
        "meta_mean_motion": 1.00272555,
        "meta_eccentricity": 0.0004332,
        "meta_inclination": 0.0611,
        "meta_ra_of_asc_node": 346.8911,
        "meta_arg_of_pericenter": 244.7236,
        "meta_mean_anomaly": 233.4623,
        "meta_ephemeris_type": 0,
        "meta_classification_type": "U",
        "meta_norad_cat_id": 39773,
        "meta_element_set_no": 999,
        "meta_rev_at_epoch": 4231,
        "meta_bstar": 0,
        "meta_mean_motion_dot": 4.1e-07,
        "meta_mean_motion_ddot": 0,
        "tle_line1": "1 39773U 14030A   25358.02544675  .00000041  00000+0  00000+0 0  9996",
        "tle_line2": "2 39773   0.0611 346.8911 0004332 244.7236 233.4623  1.00272555 42311"
      },
      "geometry": {
        "type": "Point",
        "coordinates": [
          -117.07572033756145,
          -0.07691454021490302
        ]
      }
    },
    {
      "type": "Feature",
      "properties": {
        "norad_id": 40425,
        "name": "EUTELSAT 115 WEST B",
        "group": "eutelsat",
        "lat": -0.00439654743904102,
        "lon": 124.88119922020334,
        "alt_km": 35787.05745698186,
        "timestamp": "2025-12-24T09:46:30.666955+00:00",
        "meta_object_name": "EUTELSAT 115 WEST B",
        "meta_object_id": "2015-010B",
        "meta_epoch": "2025-12-24T03:21:59.996736",
        "meta_mean_motion": 1.00270858,
        "meta_eccentricity": 1.78e-05,
        "meta_inclination": 0.0115,
        "meta_ra_of_asc_node": 149.9251,
        "meta_arg_of_pericenter": 171.1995,
        "meta_mean_anomaly": 67.3724,
        "meta_ephemeris_type": 0,
        "meta_classification_type": "U",
        "meta_norad_cat_id": 40425,
        "meta_element_set_no": 999,
        "meta_rev_at_epoch": 3963,
        "meta_bstar": 0,
        "meta_mean_motion_dot": -4e-08,
        "meta_mean_motion_ddot": 0,
        "tle_line1": "1 40425U 15010B   25358.14027774 -.00000004  00000+0  00000+0 0  9990",
        "tle_line2": "2 40425   0.0115 149.9251 0000178 171.1995  67.3724  1.00270858 39635"
      },
      "geometry": {
        "type": "Point",
        "coordinates": [
          124.88119922020334,
          -0.00439654743904102
        ]
      }
    },
    {
      "type": "Feature",
      "properties": {
        "norad_id": 40875,
        "name": "EUTELSAT 8 WEST B",
        "group": "eutelsat",
        "lat": -0.06033554270829718,
        "lon": -128.2303704382241,
        "alt_km": 35772.88256512746,
        "timestamp": "2025-12-24T09:46:30.666967+00:00",
        "meta_object_name": "EUTELSAT 8 WEST B",
        "meta_object_id": "2015-039B",
        "meta_epoch": "2025-12-24T00:44:38.545152",
        "meta_mean_motion": 1.00271254,
        "meta_eccentricity": 0.0004236,
        "meta_inclination": 0.0638,
        "meta_ra_of_asc_node": 6.4748,
        "meta_arg_of_pericenter": 267.1909,
        "meta_mean_anomaly": 182.3056,
        "meta_ephemeris_type": 0,
        "meta_classification_type": "U",
        "meta_norad_cat_id": 40875,
        "meta_element_set_no": 999,
        "meta_rev_at_epoch": 3790,
        "meta_bstar": 0,
        "meta_mean_motion_dot": -4.5e-07,
        "meta_mean_motion_ddot": 0,
        "tle_line1": "1 40875U 15039B   25358.03100168 -.00000045  00000+0  00000+0 0  9992",
        "tle_line2": "2 40875   0.0638   6.4748 0004236 267.1909 182.3056  1.00271254 37907"
      },
      "geometry": {
        "type": "Point",
        "coordinates": [
          -128.2303704382241,
          -0.06033554270829718
        ]
      }
    },
    {
      "type": "Feature",
      "properties": {
        "norad_id": 41310,
        "name": "EUTELSAT 9B",
        "group": "eutelsat",
        "lat": -0.02770736932181982,
        "lon": -111.20028215474518,
        "alt_km": 35768.02277984947,
        "timestamp": "2025-12-24T09:46:30.666979+00:00",
        "meta_object_name": "EUTELSAT 9B",
        "meta_object_id": "2016-005A",
        "meta_epoch": "2025-12-24T00:28:38.654112",
        "meta_mean_motion": 1.00272778,
        "meta_eccentricity": 0.0004524,
        "meta_inclination": 0.0224,
        "meta_ra_of_asc_node": 37.9283,
        "meta_arg_of_pericenter": 232.9243,
        "meta_mean_anomaly": 198.1231,
        "meta_ephemeris_type": 0,
        "meta_classification_type": "U",
        "meta_norad_cat_id": 41310,
        "meta_element_set_no": 999,
        "meta_rev_at_epoch": 3636,
        "meta_bstar": 0,
        "meta_mean_motion_dot": 8.3e-07,
        "meta_mean_motion_ddot": 0,
        "tle_line1": "1 41310U 16005A   25358.01989183  .00000083  00000+0  00000+0 0  9992",
        "tle_line2": "2 41310   0.0224  37.9283 0004524 232.9243 198.1231  1.00272778 36368"
      },
      "geometry": {
        "type": "Point",
        "coordinates": [
          -111.20028215474518,
          -0.02770736932181982
        ]
      }
    },
    {
      "type": "Feature",
      "properties": {
        "norad_id": 41382,
        "name": "EUTELSAT 65 WEST A",
        "group": "eutelsat",
        "lat": -0.007315744565648829,
        "lon": 174.59759756325653,
        "alt_km": 35787.80857125358,
        "timestamp": "2025-12-24T09:46:30.666991+00:00",
        "meta_object_name": "EUTELSAT 65 WEST A",
        "meta_object_id": "2016-014A",
        "meta_epoch": "2025-12-24T00:43:23.206080",
        "meta_mean_motion": 1.00272444,
        "meta_eccentricity": 0.0002229,
        "meta_inclination": 0.0493,
        "meta_ra_of_asc_node": 341.2447,
        "meta_arg_of_pericenter": 294.7713,
        "meta_mean_anomaly": 122.4597,
        "meta_ephemeris_type": 0,
        "meta_classification_type": "U",
        "meta_norad_cat_id": 41382,
        "meta_element_set_no": 999,
        "meta_rev_at_epoch": 3577,
        "meta_bstar": 0,
        "meta_mean_motion_dot": -2.55e-06,
        "meta_mean_motion_ddot": 0,
        "tle_line1": "1 41382U 16014A   25358.03012970 -.00000255  00000+0  00000+0 0  9996",
        "tle_line2": "2 41382   0.0493 341.2447 0002229 294.7713 122.4597  1.00272444 35775"
      },
      "geometry": {
        "type": "Point",
        "coordinates": [
          174.59759756325653,
          -0.007315744565648829
        ]
      }
    },
    {
      "type": "Feature",
      "properties": {
        "norad_id": 41589,
        "name": "EUTELSAT 117 WEST B",
        "group": "eutelsat",
        "lat": -0.0045868182476249495,
        "lon": 122.78665630967262,
        "alt_km": 35787.89231288276,
        "timestamp": "2025-12-24T09:46:30.667003+00:00",
        "meta_object_name": "EUTELSAT 117 WEST B",
        "meta_object_id": "2016-038B",
        "meta_epoch": "2025-12-23T15:59:57.810048",
        "meta_mean_motion": 1.00269264,
        "meta_eccentricity": 2.68e-05,
        "meta_inclination": 0.0112,
        "meta_ra_of_asc_node": 151.1868,
        "meta_arg_of_pericenter": 153.5074,
        "meta_mean_anomaly": 270.7383,
        "meta_ephemeris_type": 0,
        "meta_classification_type": "U",
        "meta_norad_cat_id": 41589,
        "meta_element_set_no": 999,
        "meta_rev_at_epoch": 3490,
        "meta_bstar": 0,
        "meta_mean_motion_dot": 1e-07,
        "meta_mean_motion_ddot": 0,
        "tle_line1": "1 41589U 16038B   25357.66664132  .00000010  00000+0  00000+0 0  9990",
        "tle_line2": "2 41589   0.0112 151.1868 0000268 153.5074 270.7383  1.00269264 34900"
      },
      "geometry": {
        "type": "Point",
        "coordinates": [
          122.78665630967262,
          -0.0045868182476249495
        ]
      }
    },
    {
      "type": "Feature",
      "properties": {
        "norad_id": 42741,
        "name": "EUTELSAT 172B",
        "group": "eutelsat",
        "lat": -0.0007735135562356043,
        "lon": 51.80332252769469,
        "alt_km": 35786.473405087316,
        "timestamp": "2025-12-24T09:46:30.667019+00:00",
        "meta_object_name": "EUTELSAT 172B",
        "meta_object_id": "2017-029B",
        "meta_epoch": "2025-12-23T20:47:52.887840",
        "meta_mean_motion": 1.00269764,
        "meta_eccentricity": 2.51e-05,
        "meta_inclination": 0.0215,
        "meta_ra_of_asc_node": 113.3929,
        "meta_arg_of_pericenter": 20.3426,
        "meta_mean_anomaly": 82.8905,
        "meta_ephemeris_type": 0,
        "meta_classification_type": "U",
        "meta_norad_cat_id": 42741,
        "meta_element_set_no": 999,
        "meta_rev_at_epoch": 3197,
        "meta_bstar": 0,
        "meta_mean_motion_dot": 1.5e-07,
        "meta_mean_motion_ddot": 0,
        "tle_line1": "1 42741U 17029B   25357.86658435  .00000015  00000+0  00000+0 0  9998",
        "tle_line2": "2 42741   0.0215 113.3929 0000251  20.3426  82.8905  1.00269764 31978"
      },
      "geometry": {
        "type": "Point",
        "coordinates": [
          51.80332252769469,
          -0.0007735135562356043
        ]
      }
    }
  ]
}